{
  "norad_id": 66147,
  "name": "STARLINK-33948",
  "history": [
    {
      "epoch": "2026-05-04T09:17:02.166432Z",
      "apogee_km": 475.9691174921518,
      "perigee_km": 474.45877601050597,
      "latitude_deg": -1.5924979754195416e-05,
      "longitude_deg": 162.73225968221544,
      "height_km": 475.98760513533864,
      "semi_major_axis_km": 6853.350946751329,
      "eccentricity": 0.00011019,
      "inclination_deg": 53.1574,
      "raan_deg": 164.2682,
      "arg_perigee_deg": 80.5191,
      "mean_anomaly_deg": 279.5934,
      "mean_motion_rev_day": 15.30200376
    },
    {
      "epoch": "2026-05-05T08:47:50.149824Z",
      "apogee_km": 476.0089552054842,
      "perigee_km": 474.37649206531296,
      "latitude_deg": -1.8778714282058036e-06,
      "longitude_deg": 164.5163776464055,
      "height_km": 475.91755019415666,
      "semi_major_axis_km": 6853.329723635398,
      "eccentricity": 0.0001191,
      "inclination_deg": 53.158,
      "raan_deg": 159.7179,
      "arg_perigee_deg": 77.7501,
      "mean_anomaly_deg": 282.3633,
      "mean_motion_rev_day": 15.30207484
    },
    {
      "epoch": "2026-05-06T09:52:41.601504Z",
      "apogee_km": 476.06400197745006,
      "perigee_km": 474.3458691542028,
      "latitude_deg": -2.155965872118507e-05,
      "longitude_deg": 142.41693859232072,
      "height_km": 475.9275059419707,
      "semi_major_axis_km": 6853.341935565826,
      "eccentricity": 0.00012535,
      "inclination_deg": 53.1582,
      "raan_deg": 154.8629,
      "arg_perigee_deg": 78.2203,
      "mean_anomaly_deg": 281.8938,
      "mean_motion_rev_day": 15.30203394
    },
    {
      "epoch": "2026-05-07T10:57:33.258816Z",
      "apogee_km": 476.04632407742974,
      "perigee_km": 474.43303920657036,
      "latitude_deg": 1.5261263756391987e-05,
      "longitude_deg": 120.31748268116861,
      "height_km": 476.05348060839435,
      "semi_major_axis_km": 6853.376681641999,
      "eccentricity": 0.0001177,
      "inclination_deg": 53.1584,
      "raan_deg": 150.0087,
      "arg_perigee_deg": 84.0058,
      "mean_anomaly_deg": 276.1077,
      "mean_motion_rev_day": 15.30191757
    },
    {
      "epoch": "2026-05-08T18:18:36.561024Z",
      "apogee_km": 476.03193280442156,
      "perigee_km": 474.3131227748527,
      "latitude_deg": -4.000228258027188e-05,
      "longitude_deg": 2.698641854430831,
      "height_km": 475.9322707519208,
      "semi_major_axis_km": 6853.309527789637,
      "eccentricity": 0.0001254,
      "inclination_deg": 53.1584,
      "raan_deg": 143.9412,
      "arg_perigee_deg": 80.7449,
      "mean_anomaly_deg": 279.3693,
      "mean_motion_rev_day": 15.30214248
    },
    {
      "epoch": "2026-05-09T17:49:24.439008Z",
      "apogee_km": 476.01560498662457,
      "perigee_km": 474.4379606438215,
      "latitude_deg": -5.3748383711294497e-05,
      "longitude_deg": 4.482180987180507,
      "height_km": 476.0329757065295,
      "semi_major_axis_km": 6853.363782815223,
      "eccentricity": 0.0001151,
      "inclination_deg": 53.1581,
      "raan_deg": 139.3899,
      "arg_perigee_deg": 83.3127,
      "mean_anomaly_deg": 276.8004,
      "mean_motion_rev_day": 15.30196077
    },
    {
      "epoch": "2026-05-10T17:20:12.439680Z",
      "apogee_km": 476.0322532547216,
      "perigee_km": 474.39978456561585,
      "latitude_deg": -1.1711583108120637e-05,
      "longitude_deg": 6.265549976476901,
      "height_km": 476.0989532417379,
      "semi_major_axis_km": 6853.353018910168,
      "eccentricity": 0.0001191,
      "inclination_deg": 53.158,
      "raan_deg": 134.8389,
      "arg_perigee_deg": 88.9445,
      "mean_anomaly_deg": 271.1692,
      "mean_motion_rev_day": 15.30199682
    },
    {
      "epoch": "2026-05-11T10:34:47.645472Z",
      "apogee_km": 476.12796910341785,
      "perigee_km": 474.3299200142037,
      "latitude_deg": -7.18123300508984e-07,
      "longitude_deg": 103.57341755967663,
      "height_km": 476.1340653963306,
      "semi_major_axis_km": 6853.365944558811,
      "eccentricity": 0.00013118,
      "inclination_deg": 53.1579,
      "raan_deg": 131.5016,
      "arg_perigee_deg": 90.4672,
      "mean_anomaly_deg": 269.6479,
      "mean_motion_rev_day": 15.30195353
    },
    {
      "epoch": "2026-05-12T16:21:48.287232Z",
      "apogee_km": 476.16258192685746,
      "perigee_km": 474.2683153100588,
      "latitude_deg": -1.4661605857156233e-05,
      "longitude_deg": 9.834068097489578,
      "height_km": 476.0153283019806,
      "semi_major_axis_km": 6853.352448618458,
      "eccentricity": 0.0001382,
      "inclination_deg": 53.1576,
      "raan_deg": 125.7381,
      "arg_perigee_deg": 84.0733,
      "mean_anomaly_deg": 276.0425,
      "mean_motion_rev_day": 15.30199873
    },
    {
      "epoch": "2026-05-13T09:36:23.577696Z",
      "apogee_km": 476.08759962793374,
      "perigee_km": 474.3838511684007,
      "latitude_deg": 4.269786968889152e-05,
      "longitude_deg": 107.14241722042304,
      "height_km": 476.2160510536281,
      "semi_major_axis_km": 6853.372725398167,
      "eccentricity": 0.0001243,
      "inclination_deg": 53.1572,
      "raan_deg": 122.4016,
      "arg_perigee_deg": 95.5587,
      "mean_anomaly_deg": 264.5556,
      "mean_motion_rev_day": 15.30193082
    },
    {
      "epoch": "2026-05-14T05:59:05.128224Z",
      "apogee_km": 476.00438969437073,
      "perigee_km": 474.42469216418704,
      "latitude_deg": -3.332304841423802e-05,
      "longitude_deg": 156.68783053511726,
      "height_km": 476.16948038934044,
      "semi_major_axis_km": 6853.351540929279,
      "eccentricity": 0.00011525,
      "inclination_deg": 53.1567,
      "raan_deg": 118.4571,
      "arg_perigee_deg": 94.1421,
      "mean_anomaly_deg": 265.9711,
      "mean_motion_rev_day": 15.30200177
    }
  ]
}